STARLINK-31649          
1 59390U 24062S   25231.10167525  .00000936  00000+0  43709-4 0  9994
2 59390  53.1597 116.7088 0000849  75.0531 285.0563 15.30197490 78677
STARLINK-31644          
1 59391U 24062T   25231.07804147  .00001244  00000+0  54117-4 0  9997
2 59391  53.1593 119.4066 0001225 103.5944 256.5193 15.30204221 78633
STARLINK-31626          
1 59392U 24062U   25230.88991099 -.00000741  00000+0 -12895-4 0  9999
2 59392  53.1593 117.5193 0001320  90.5593 269.5559 15.30187146 78620
STARLINK-31443          
1 59393U 24062V   25230.87466376  .00000079  00000+0  14785-4 0  9996
2 59393  53.1591 105.1687 0001006  84.2427 275.8688 15.30192982 78792
STARLINK-31607          
1 59394U 24062W   25231.09217927  .00000666  00000+0  34617-4 0  9996
2 59394  53.1595 116.6490 0001292  74.1357 285.9786 15.30192866 78672
STARLINK-31608          
1 59397U 24062X   25230.92578528  .00000162  00000+0  17585-4 0  9993
2 59397  53.1590 117.7430 0001134  94.7464 265.3666 15.30190002 78431
STARLINK-31534          
1 59398U 24064A   25230.42634874  .00000767  00000+0  37408-4 0  9995
2 59398  43.0060 123.7220 0001155 261.0768  98.9953 15.27572942 78088
STARLINK-31544          
1 59399U 24064B   25230.41235764  .00001057  00000+0  47934-4 0  9998
2 59399  43.0015 124.4829 0000886 283.9154  76.1599 15.27569264 78137
STARLINK-31545          
1 59400U 24064C   25231.09175921 -.00007074  00000+0 -24751-3 0  9992
2 59400  43.0023 120.1189 0001543 288.5727  71.4957 15.27614722 78247
STARLINK-31507          
1 59401U 24064D   25231.09819987 -.00002987  00000+0 -99116-4 0  9996
2 59401  43.0043 120.1599 0001389 293.1695  66.9010 15.27563226 78183
STARLINK-31543          
1 59402U 24064E   25230.40464964  .00000294  00000+0  20216-4 0  9994
2 59402  43.0003 124.4195 0001103 277.2739  82.7987 15.27568580 78137
STARLINK-31366          
1 59403U 24064F   25230.97899539 -.00001274  00000+0 -36812-4 0  9997
2 59403  43.0002 120.9863 0000905 271.5618  88.5130 15.27573195 78224
STARLINK-31374          
1 59404U 24064G   25230.89299779  .00001402  00000+0  60483-4 0  9991
2 59404  43.0023  70.3936 0001219 270.5046  89.5666 15.27568409 78542
STARLINK-31400          
1 59405U 24064H   25231.08406725  .00000488  00000+0  27270-4 0  9995
2 59405  43.0038 120.0609 0001069 308.7617  51.3139 15.27574062 78241
STARLINK-31391          
1 59406U 24064J   25230.43405497  .00000767  00000+0  37380-4 0  9992
2 59406  43.0037 123.7789 0001055 272.1434  87.9297 15.27577554 78144
STARLINK-31387          
1 59407U 24064K   25230.40849844  .00000852  00000+0  40475-4 0  9992
2 59407  43.0023 124.4508 0001072 280.4727  79.6004 15.27575044 78138
STARLINK-31396          
1 59409U 24064M   25230.38040568 -.00000169  00000+0  33766-5 0  9995
2 59409  43.0010 113.8447 0000950 275.8030  84.2713 15.27572904 78196
