[{"OBJECT_NAME":"STARLINK-31649","OBJECT_ID":"2024-062S","EPOCH":"2025-08-19T02:26:24.741600","MEAN_MOTION":15.3019749,"ECCENTRICITY":8.49e-5,"INCLINATION":53.1597,"RA_OF_ASC_NODE":116.7088,"ARG_OF_PERICENTER":75.0531,"MEAN_ANOMALY":285.0563,"EPHEMERIS_TYPE":0,"CLASSIFICATION_TYPE":"U","NORAD_CAT_ID":59390,"ELEMENT_SET_NO":999,"REV_AT_EPOCH":7867,"BSTAR":4.3709e-5,"MEAN_MOTION_DOT":9.36e-6,"MEAN_MOTION_DDOT":0},{"OBJECT_NAME":"STARLINK-31644","OBJECT_ID":"2024-062T","EPOCH":"2025-08-19T01:52:22.783008","MEAN_MOTION":15.30204221,"ECCENTRICITY":0.0001225,"INCLINATION":53.1593,"RA_OF_ASC_NODE":119.4066,"ARG_OF_PERICENTER":103.5944,"MEAN_ANOMALY":256.5193,"EPHEMERIS_TYPE":0,"CLASSIFICATION_TYPE":"U","NORAD_CAT_ID":59391,"ELEMENT_SET_NO":999,"REV_AT_EPOCH":7863,"BSTAR":5.4117e-5,"MEAN_MOTION_DOT":1.244e-5,"MEAN_MOTION_DDOT":0},{"OBJECT_NAME":"STARLINK-31626","OBJECT_ID":"2024-062U","EPOCH":"2025-08-18T21:21:28.309536","MEAN_MOTION":15.30187146,"ECCENTRICITY":0.000132,"INCLINATION":53.1593,"RA_OF_ASC_NODE":117.5193,"ARG_OF_PERICENTER":90.5593,"MEAN_ANOMALY":269.5559,"EPHEMERIS_TYPE":0,"CLASSIFICATION_TYPE":"U","NORAD_CAT_ID":59392,"ELEMENT_SET_NO":999,"REV_AT_EPOCH":7862,"BSTAR":-1.2895e-5,"MEAN_MOTION_DOT":-7.41e-6,"MEAN_MOTION_DDOT":0},{"OBJECT_NAME":"STARLINK-31443","OBJECT_ID":"2024-062V","EPOCH":"2025-08-18T20:59:30.948864","MEAN_MOTION":15.30192982,"ECCENTRICITY":0.0001006,"INCLINATION":53.1591,"RA_OF_ASC_NODE":105.1687,"ARG_OF_PERICENTER":84.2427,"MEAN_ANOMALY":275.8688,"EPHEMERIS_TYPE":0,"CLASSIFICATION_TYPE":"U","NORAD_CAT_ID":59393,"ELEMENT_SET_NO":999,"REV_AT_EPOCH":7879,"BSTAR":1.4785e-5,"MEAN_MOTION_DOT":7.9e-7,"MEAN_MOTION_DDOT":0},{"OBJECT_NAME":"STARLINK-31607","OBJECT_ID":"2024-062W","EPOCH":"2025-08-19T02:12:44.288928","MEAN_MOTION":15.30192866,"ECCENTRICITY":0.0001292,"INCLINATION":53.1595,"RA_OF_ASC_NODE":116.649,"ARG_OF_PERICENTER":74.1357,"MEAN_ANOMALY":285.9786,"EPHEMERIS_TYPE":0,"CLASSIFICATION_TYPE":"U","NORAD_CAT_ID":59394,"ELEMENT_SET_NO":999,"REV_AT_EPOCH":7867,"BSTAR":3.4617e-5,"MEAN_MOTION_DOT":6.66e-6,"MEAN_MOTION_DDOT":0},{"OBJECT_NAME":"STARLINK-31608","OBJECT_ID":"2024-062X","EPOCH":"2025-08-18T22:13:07.848192","MEAN_MOTION":15.30190002,"ECCENTRICITY":0.0001134,"INCLINATION":53.159,"RA_OF_ASC_NODE":117.743,"ARG_OF_PERICENTER":94.7464,"MEAN_ANOMALY":265.3666,"EPHEMERIS_TYPE":0,"CLASSIFICATION_TYPE":"U","NORAD_CAT_ID":59397,"ELEMENT_SET_NO":999,"REV_AT_EPOCH":7843,"BSTAR":1.7585e-5,"MEAN_MOTION_DOT":1.62e-6,"MEAN_MOTION_DDOT":0},{"OBJECT_NAME":"STARLINK-31534","OBJECT_ID":"2024-064A","EPOCH":"2025-08-18T10:13:56.531136","MEAN_MOTION":15.27572942,"ECCENTRICITY":0.0001155,"INCLINATION":43.006,"RA_OF_ASC_NODE":123.722,"ARG_OF_PERICENTER":261.0768,"MEAN_ANOMALY":98.9953,"EPHEMERIS_TYPE":0,"CLASSIFICATION_TYPE":"U","NORAD_CAT_ID":59398,"ELEMENT_SET_NO":999,"REV_AT_EPOCH":7808,"BSTAR":3.7408e-5,"MEAN_MOTION_DOT":7.67e-6,"MEAN_MOTION_DDOT":0},{"OBJECT_NAME":"STARLINK-31544","OBJECT_ID":"2024-064B","EPOCH":"2025-08-18T09:53:47.700096","MEAN_MOTION":15.27569264,"ECCENTRICITY":8.86e-5,"INCLINATION":43.0015,"RA_OF_ASC_NODE":124.4829,"ARG_OF_PERICENTER":283.9154,"MEAN_ANOMALY":76.1599,"EPHEMERIS_TYPE":0,"CLASSIFICATION_TYPE":"U","NORAD_CAT_ID":59399,"ELEMENT_SET_NO":999,"REV_AT_EPOCH":7813,"BSTAR":4.7934e-5,"MEAN_MOTION_DOT":1.057e-5,"MEAN_MOTION_DDOT":0},{"OBJECT_NAME":"STARLINK-31545","OBJECT_ID":"2024-064C","EPOCH":"2025-08-19T02:12:07.995744","MEAN_MOTION":15.27614722,"ECCENTRICITY":0.0001543,"INCLINATION":43.0023,"RA_OF_ASC_NODE":120.1189,"ARG_OF_PERICENTER":288.5727,"MEAN_ANOMALY":71.4957,"EPHEMERIS_TYPE":0,"CLASSIFICATION_TYPE":"U","NORAD_CAT_ID":59400,"ELEMENT_SET_NO":999,"REV_AT_EPOCH":7824,"BSTAR":-0.00024751,"MEAN_MOTION_DOT":-7.074e-5,"MEAN_MOTION_DDOT":0},{"OBJECT_NAME":"STARLINK-31507","OBJECT_ID":"2024-064D","EPOCH":"2025-08-19T02:21:24.468768","MEAN_MOTION":15.27563226,"ECCENTRICITY":0.0001389,"INCLINATION":43.0043,"RA_OF_ASC_NODE":120.1599,"ARG_OF_PERICENTER":293.1695,"MEAN_ANOMALY":66.901,"EPHEMERIS_TYPE":0,"CLASSIFICATION_TYPE":"U","NORAD_CAT_ID":59401,"ELEMENT_SET_NO":999,"REV_AT_EPOCH":7818,"BSTAR":-9.9116e-5,"MEAN_MOTION_DOT":-2.987e-5,"MEAN_MOTION_DDOT":0},{"OBJECT_NAME":"STARLINK-31543","OBJECT_ID":"2024-064E","EPOCH":"2025-08-18T09:42:41.728896","MEAN_MOTION":15.2756858,"ECCENTRICITY":0.0001103,"INCLINATION":43.0003,"RA_OF_ASC_NODE":124.4195,"ARG_OF_PERICENTER":277.2739,"MEAN_ANOMALY":82.7987,"EPHEMERIS_TYPE":0,"CLASSIFICATION_TYPE":"U","NORAD_CAT_ID":59402,"ELEMENT_SET_NO":999,"REV_AT_EPOCH":7813,"BSTAR":2.0216e-5,"MEAN_MOTION_DOT":2.94e-6,"MEAN_MOTION_DDOT":0},{"OBJECT_NAME":"STARLINK-31366","OBJECT_ID":"2024-064F","EPOCH":"2025-08-18T23:29:45.201696","MEAN_MOTION":15.27573195,"ECCENTRICITY":9.05e-5,"INCLINATION":43.0002,"RA_OF_ASC_NODE":120.9863,"ARG_OF_PERICENTER":271.5618,"MEAN_ANOMALY":88.513,"EPHEMERIS_TYPE":0,"CLASSIFICATION_TYPE":"U","NORAD_CAT_ID":59403,"ELEMENT_SET_NO":999,"REV_AT_EPOCH":7822,"BSTAR":-3.6812e-5,"MEAN_MOTION_DOT":-1.274e-5,"MEAN_MOTION_DDOT":0},{"OBJECT_NAME":"STARLINK-31374","OBJECT_ID":"2024-064G","EPOCH":"2025-08-18T21:25:55.009056","MEAN_MOTION":15.27568409,"ECCENTRICITY":0.0001219,"INCLINATION":43.0023,"RA_OF_ASC_NODE":70.3936,"ARG_OF_PERICENTER":270.5046,"MEAN_ANOMALY":89.5666,"EPHEMERIS_TYPE":0,"CLASSIFICATION_TYPE":"U","NORAD_CAT_ID":59404,"ELEMENT_SET_NO":999,"REV_AT_EPOCH":7854,"BSTAR":6.0483e-5,"MEAN_MOTION_DOT":1.402e-5,"MEAN_MOTION_DDOT":0},{"OBJECT_NAME":"STARLINK-31400","OBJECT_ID":"2024-064H","EPOCH":"2025-08-19T02:01:03.410400","MEAN_MOTION":15.27574062,"ECCENTRICITY":0.0001069,"INCLINATION":43.0038,"RA_OF_ASC_NODE":120.0609,"ARG_OF_PERICENTER":308.7617,"MEAN_ANOMALY":51.3139,"EPHEMERIS_TYPE":0,"CLASSIFICATION_TYPE":"U","NORAD_CAT_ID":59405,"ELEMENT_SET_NO":999,"REV_AT_EPOCH":7824,"BSTAR":2.727e-5,"MEAN_MOTION_DOT":4.88e-6,"MEAN_MOTION_DDOT":0},{"OBJECT_NAME":"STARLINK-31391","OBJECT_ID":"2024-064J","EPOCH":"2025-08-18T10:25:02.349408","MEAN_MOTION":15.27577554,"ECCENTRICITY":0.0001055,"INCLINATION":43.0037,"RA_OF_ASC_NODE":123.7789,"ARG_OF_PERICENTER":272.1434,"MEAN_ANOMALY":87.9297,"EPHEMERIS_TYPE":0,"CLASSIFICATION_TYPE":"U","NORAD_CAT_ID":59406,"ELEMENT_SET_NO":999,"REV_AT_EPOCH":7814,"BSTAR":3.738e-5,"MEAN_MOTION_DOT":7.67e-6,"MEAN_MOTION_DDOT":0},{"OBJECT_NAME":"STARLINK-31387","OBJECT_ID":"2024-064K","EPOCH":"2025-08-18T09:48:14.265216","MEAN_MOTION":15.27575044,"ECCENTRICITY":0.0001072,"INCLINATION":43.0023,"RA_OF_ASC_NODE":124.4508,"ARG_OF_PERICENTER":280.4727,"MEAN_ANOMALY":79.6004,"EPHEMERIS_TYPE":0,"CLASSIFICATION_TYPE":"U","NORAD_CAT_ID":59407,"ELEMENT_SET_NO":999,"REV_AT_EPOCH":7813,"BSTAR":4.0475e-5,"MEAN_MOTION_DOT":8.52e-6,"MEAN_MOTION_DDOT":0},{"OBJECT_NAME":"STARLINK-31396","OBJECT_ID":"2024-064M","EPOCH":"2025-08-18T09:07:47.050752","MEAN_MOTION":15.27572904,"ECCENTRICITY":9.5e-5,"INCLINATION":43.001,"RA_OF_ASC_NODE":113.8447,"ARG_OF_PERICENTER":275.803,"MEAN_ANOMALY":84.2713,"EPHEMERIS_TYPE":0,"CLASSIFICATION_TYPE":"U","NORAD_CAT_ID":59409,"ELEMENT_SET_NO":999,"REV_AT_EPOCH":7819,"BSTAR":3.3766e-6,"MEAN_MOTION_DOT":-1.69e-6,"MEAN_MOTION_DDOT":0}]
